NORAD_CAT_ID,OBJECT_NAME,OBJECT_TYPE,EPOCH,MEAN_MOTION,ECCENTRICITY,INCLINATION,RA_OF_ASC_NODE,ARG_OF_PERICENTER,MEAN_ANOMALY,BSTAR,MEAN_MOTION_DOT,MEAN_MOTION_DDOT,TLE_LINE0,TLE_LINE1,TLE_LINE2,SEMIMAJOR_AXIS,PERIOD,APOGEE,PERIGEE,DECAYED
53784.0,STARLINK-4687,PAYLOAD,2022-09-30 22:00:00,15.73171399,0.0001418,53.2163,168.8298,157.6587,183.7519,0.00035854,0.00049937,0.0,0 STARLINK-4687,1 53784U 22111M   22273.91667824  .00049937  00000-0  35854-3 0  9993,2 53784  53.2163 168.8298 0001418 157.6587 183.7519 15.73171399  1308,6727.977,91.535,350.796,348.88800000000015,0.0
53784.0,STARLINK-4687,PAYLOAD,2022-10-01 14:00:01,15.73195643,0.0001565999999999,53.216,165.5295,153.2418,6.0375,0.00015124,0.00020654,0.0,0 STARLINK-4687,1 53784U 22111M   22274.58334491  .00020654  00000-0  15124-3 0  9991,2 53784  53.2160 165.5295 0001566 153.2418   6.0375 15.73195643  1300,6727.908,91.533,350.826,348.719,0.0
53784.0,STARLINK-4687,PAYLOAD,2022-10-01 22:00:00,15.73213113,0.000158,53.2159,163.8817,143.5843,104.6321,-0.00068595,-0.00095856,0.0,0 STARLINK-4687,1 53784U 22111M   22274.91667824 -.00095856  00000-0 -68595-3 0  9995,2 53784  53.2159 163.8817 0001580 143.5843 104.6321 15.73213113  1308,6727.858,91.532,350.786,348.66,0.0
53784.0,STARLINK-4687,PAYLOAD,2022-10-02 06:00:00,15.73136869,0.000147,53.2155,162.2325,145.2056,191.9103,7.4138e-05,9.769e-05,0.0,0 STARLINK-4687,1 53784U 22111M   22275.25001157  .00009769  00000-0  74138-4 0  9991,2 53784  53.2155 162.2325 0001470 145.2056 191.9103 15.73136869  3260,6728.075,91.537,350.92900000000014,348.951,0.0
53784.0,STARLINK-4687,PAYLOAD,2022-10-02 14:00:01,15.73121816,0.0001675,53.2158,160.5812,154.2618,271.7157,0.00086998,0.00122865,0.0,0 STARLINK-4687,1 53784U 22111M   22275.58334491  .00122865  00000-0  86998-3 0  9996,2 53784  53.2158 160.5812 0001675 154.2618 271.7157 15.73121816  1301,6728.118,91.538,351.11,348.856,0.0
53784.0,STARLINK-4687,PAYLOAD,2022-10-02 22:00:00,15.73205711,0.0001501,53.216,158.9335,150.9983,3.8547,0.00040943,0.00057248,0.0,0 STARLINK-4687,1 53784U 22111M   22275.91667824  .00057248  00000-0  40943-3 0  9994,2 53784  53.2160 158.9335 0001501 150.9983   3.8547 15.73205711  3374,6727.879,91.533,350.754,348.7340000000001,0.0
53784.0,STARLINK-4687,PAYLOAD,2022-10-03 14:00:01,15.73246233,0.0001638,53.2161,155.6327,156.0578,176.7921,0.00036462,0.00050965,0.0,0 STARLINK-4687,1 53784U 22111M   22276.58334491  .00050965  00000-0  36462-3 0  9999,2 53784  53.2161 155.6327 0001638 156.0578 176.7921 15.73246233  1309,6727.763000000001,91.53,350.73,348.526,0.0
53784.0,STARLINK-4687,PAYLOAD,2022-10-03 22:00:00,15.73295255,0.0001459,53.216,153.9852,149.1754,272.6466,-0.000711,-0.00099637,0.0,0 STARLINK-4687,1 53784U 22111M   22276.91667824 -.00099637  00000-0 -71100-3 0  9994,2 53784  53.2160 153.9852 0001459 149.1754 272.6466 15.73295255  1300,6727.624,91.528,350.47,348.50699999999995,0.0
53784.0,STARLINK-4687,PAYLOAD,2022-10-04 06:00:00,15.73257078,0.0001551999999999,53.2157,152.3354,143.8524,6.9684,-0.00035209,-0.00049864,0.0,0 STARLINK-4687,1 53784U 22111M   22277.25001157 -.00049864  00000-0 -35209-3 0  9990,2 53784  53.2157 152.3354 0001552 143.8524   6.9684 15.73257078  3589,6727.732,91.53,350.642,348.55300000000005,0.0
53784.0,STARLINK-4687,PAYLOAD,2022-10-04 14:00:01,15.73203142,0.0001799,53.2159,150.6841,149.5009,90.3036,8.755899999999999e-05,0.00011687,0.0,0 STARLINK-4687,1 53784U 22111M   22277.58334491  .00011687  00000-0  87559-4 0  9992,2 53784  53.2159 150.6841 0001799 149.5009  90.3036 15.73203142  1306,6727.886,91.533,350.962,348.541,0.0
53784.0,STARLINK-4687,PAYLOAD,2022-10-04 22:00:00,15.73198421,0.0001651,53.216,149.037,142.6992,186.0453,1.8494e-05,1.975e-05,0.0,0 STARLINK-4687,1 53784U 22111M   22277.91667824  .00001975  00000-0  18494-4 0  9999,2 53784  53.2160 149.0370 0001651 142.6992 186.0453 15.73198421  1308,6727.9,91.533,350.875,348.654,0.0
53784.0,STARLINK-4687,PAYLOAD,2022-10-05 08:00:01,15.733112599999998,0.0001519,53.217,146.9759,135.8697,34.0327,-0.0039533,-0.00524711,0.0,0 STARLINK-4687,1 53784U 22111M   22278.33334491 -.00524711  00000-0 -39533-2 0  9992,2 53784  53.2170 146.9759 0001519 135.8697  34.0327 15.73311260  3756,6727.578,91.527,350.465,348.421,0.0
53784.0,STARLINK-4687,PAYLOAD,2022-10-05 14:00:01,15.73118145,0.0001791,53.2162,145.7361,148.3438,358.2331,0.00062508,0.00087719,0.0,0 STARLINK-4687,1 53784U 22111M   22278.58335648  .00087719  00000-0  62508-3 0  9993,2 53784  53.2162 145.7361 0001791 148.3438 358.2331 15.73118145  3794,6728.129,91.538,351.199,348.789,0.0
53784.0,STARLINK-4687,PAYLOAD,2022-10-05 22:00:00,15.73193883,0.0001581,53.2161,144.0896,141.9092,93.4665,-0.0002222,-0.0003168,0.0,0 STARLINK-4687,1 53784U 22111M   22278.91667824 -.00031680  00000-0 -22220-3 0  9999,2 53784  53.2161 144.0896 0001581 141.9092  93.4665 15.73193883  1305,6727.913000000001,91.534,350.841,348.714,0.0
53784.0,STARLINK-4687,PAYLOAD,2022-10-06 06:00:00,15.73176067,0.0001636999999999,53.2154,142.439,142.9948,181.2411,0.00049618,0.00069523,0.0,0 STARLINK-4687,1 53784U 22111M   22279.25001157  .00069523  00000-0  49618-3 0  9993,2 53784  53.2154 142.4390 0001637 142.9948 181.2411 15.73176067  3897,6727.9630000000025,91.535,350.93,348.727,0.0
53784.0,STARLINK-4687,PAYLOAD,2022-10-06 14:00:01,15.73239017,0.0001857,53.2157,140.7882,145.773,267.3735,-0.00010387,-0.00015197,0.0,0 STARLINK-4687,1 53784U 22111M   22279.58334491 -.00015197  00000-0 -10387-3 0  9990,2 53784  53.2157 140.7882 0001857 145.7730 267.3735 15.73239017  1305,6727.784000000002,91.531,350.898,348.4,0.0
53784.0,STARLINK-4687,PAYLOAD,2022-10-06 22:42:55,15.73180355,0.0001853,53.2171,138.995,144.4308,166.5207,0.00013454,0.00018287,0.0,0 STARLINK-4687,1 53784U 22111M   22279.94646991  .00018287  00000-0  13454-3 0  9990,2 53784  53.2171 138.9950 0001853 144.4308 166.5207 15.73180355  1303,6727.951,91.534,351.06300000000016,348.569,0.0
53784.0,STARLINK-4687,PAYLOAD,2022-10-07 00:00:00,15.73165358,0.0001805,53.2172,138.7305,145.6654,108.6979,0.00036989,0.00051535,0.0,0 STARLINK-4687,1 53784U 22111M   22280.00001157  .00051535  00000-0  36989-3 0  9999,2 53784  53.2172 138.7305 0001805 145.6654 108.6979 15.73165358  4010,6727.994000000002,91.535,351.0730000000001,348.645,0.0
53784.0,STARLINK-4687,PAYLOAD,2022-10-07 14:00:01,15.73202439,0.000196,53.2177,135.8419,151.5542,168.4206,2.8586e-05,3.393e-05,0.0,0 STARLINK-4687,1 53784U 22111M   22280.58334491  .00003393  00000-0  28586-4 0  9996,2 53784  53.2177 135.8419 0001960 151.5542 168.4206 15.73202439  4102,6727.888000000001,91.533,351.07199999999995,348.435,0.0
53784.0,STARLINK-4687,PAYLOAD,2022-10-07 22:00:00,15.73207184,0.0001525,53.2151,134.1923,140.3717,268.5643,-6.922699999999999e-05,-0.00010327,0.0,0 STARLINK-4687,1 53784U 22111M   22280.91667824 -.00010327  00000-0 -69227-4 0  9996,2 53784  53.2151 134.1923 0001525 140.3717 268.5643 15.73207184  1301,6727.875,91.533,350.766,348.714,0.0
53784.0,STARLINK-4687,PAYLOAD,2022-10-08 14:00:01,15.73176739,0.0001751,53.2147,130.891,147.6749,79.1218,0.00033539,0.00046665,0.0,0 STARLINK-4687,1 53784U 22111M   22281.58334491  .00046665  00000-0  33539-3 0  9999,2 53784  53.2147 130.8910 0001751 147.6749  79.1218 15.73176739  1306,6727.9609999999975,91.535,351.005,348.648,0.0
53784.0,STARLINK-4687,PAYLOAD,2022-10-08 22:00:00,15.73221551,0.0001453999999999,53.2147,129.2435,140.6241,175.0982,-2.6148e-05,-4.292e-05,0.0,0 STARLINK-4687,1 53784U 22111M   22281.91667824 -.00004292  00000-0 -26148-4 0  9996,2 53784  53.2147 129.2435 0001454 140.6241 175.0982 15.73221551  4311,6727.834,91.532,350.677,348.721,0.0
53784.0,STARLINK-4687,PAYLOAD,2022-10-09 14:00:01,15.73240237,0.0001794,53.2146,125.9422,136.6086,357.009,-4.5575e-05,-7.023e-05,0.0,0 STARLINK-4687,1 53784U 22111M   22282.58334491 -.00007023  00000-0 -45575-4 0  9991,2 53784  53.2146 125.9422 0001794 136.6086 357.0090 15.73240237  1308,6727.78,91.531,350.852,348.43800000000016,0.0
53784.0,STARLINK-4687,PAYLOAD,2022-10-09 22:00:00,15.73220904,0.0001561999999999,53.2141,124.2946,129.5514,93.0427,7.2883e-06,4.03e-06,0.0,0 STARLINK-4687,1 53784U 22111M   22282.91667824  .00000403  00000-0  72883-5 0  9993,2 53784  53.2141 124.2946 0001562 129.5514  93.0427 15.73220904  1306,6727.8359999999975,91.532,350.751,348.65,0.0
53784.0,STARLINK-4687,PAYLOAD,2022-10-10 08:00:01,15.73215598,0.0001571,53.2147,122.2313,142.7442,281.0502,-0.00020937,-0.0002992,0.0,0 STARLINK-4687,1 53784U 22111M   22283.33334491 -.00029920  00000-0 -20937-3 0  9999,2 53784  53.2147 122.2313 0001571 142.7442 281.0502 15.73215598  4540,6727.851,91.532,350.773,348.659,0.0
53784.0,STARLINK-4687,PAYLOAD,2022-10-10 14:00:01,15.73266246,0.0001579,53.2156,120.994,147.0559,253.4319,-0.001916,-0.00262069,0.0,0 STARLINK-4687,1 53784U 22111M   22283.58334491 -.00262069  00000-0 -19160-2 0  9994,2 53784  53.2156 120.9940 0001579 147.0559 253.4319 15.73266246  1302,6727.706,91.529,350.634,348.509,0.0
53784.0,STARLINK-4687,PAYLOAD,2022-10-10 22:00:01,15.73264632,0.0001489,53.2157,119.3471,136.3336,353.2522,-0.0029475,-0.00396493,0.0,0 STARLINK-4687,1 53784U 22111M   22283.91668981 -.00396493  00000-0 -29475-2 0  9994,2 53784  53.2157 119.3471 0001489 136.3336 353.2522 15.73264632  1300,6727.7109999999975,91.529,350.57800000000015,348.574,0.0
53784.0,STARLINK-4687,PAYLOAD,2022-10-11 06:00:00,15.731567000000002,0.0001431,53.2149,117.6949,134.3371,84.0277,-0.00052657,-0.00073741,0.0,0 STARLINK-4687,1 53784U 22111M   22284.25001157 -.00073741  00000-0 -52657-3 0  9995,2 53784  53.2149 117.6949 0001431 134.3371  84.0277 15.73156700  4682,6728.019,91.536,350.846,348.921,0.0
53784.0,STARLINK-4687,PAYLOAD,2022-10-11 14:00:01,15.73159808,0.0001893,53.2172,116.0471,129.0128,178.1923,0.00053893,0.0007557,0.0,0 STARLINK-4687,1 53784U 22111M   22284.58334491  .00075570  00000-0  53893-3 0  9994,2 53784  53.2172 116.0471 0001893 129.0128 178.1923 15.73159808  4735,6728.01,91.536,351.148,348.601,0.0
